ONEWEB-0694             
1 56722U 23068N   23270.02721581  .00002303  00000+0  31366-3 0  9990
2 56722  86.7185  87.3495 0016468 125.6024 234.6734 14.78205137 19973
ONEWEB-0696             
1 56723U 23068P   23269.94538902 -.00032994  00000+0 -72517-1 0  9995
2 56723  88.0028  96.6795 0004389 108.4041 251.7575 13.28572750 19287
ONEWEB-0703             
1 56724U 23068Q   23270.25002315 -.00018626  00000+0 -44917-1 0  9995
2 56724  87.8549  97.2709 0002644  99.1640 150.9844 13.22284491 19261
ONEWEB-0721             
1 56725U 23068R   23269.95444075  .00002782  00000+0  33721-3 0  9991
2 56725  86.6715  86.4097 0012729 122.2824 237.9634 14.83197253 20016
